format  = 'OEF2.0'       ! file format
rectype = 'ML'           ! record type (1L/ML)
refsys  = ECLM J2000     ! default reference system
END_OF_HEADER
410777
! Equinoctial elements: a, e*sin(LP), e*cos(LP), tan(i/2)*sin(LN), tan(i/2)*cos(LN), mean long.
 EQU   1.1626729655209180E+00  -0.460663793651958   0.174881261244442    0.004551532850785    0.027004949678697  25.7134988532240
 MJD     56013.440131620 TDT
 MAG  22.130  0.150
! Non-grav parameters: model used, actual number in use, dimension, list of solve for parameters to be currently determined
 LSP   1  2    7    2
! Vector of dynamical parameters
 NGR   0.00000000000000E+00 -1.70654132671727E-05
! A priori value and standard deviation (only Yarkovsky effect)
 APR YAR   0.00000000000000E+00  3.25000000000000E-04
! RMS    2.23435E-09   3.24388E-08   6.16972E-08   6.46816E-09   5.19933E-08   6.23879E-06   3.25873E-04
! EIG   3.16388E-10   3.73617E-09   1.23444E-08   2.25802E-08   5.22095E-08   1.25320E-07   3.25873E-04
! WEA   0.00000   0.00001  -0.00002  -0.00000   0.00000   0.00005   1.00000
 COV   4.992313076762281E-18 -1.104365648792087E-17  4.780233652454548E-17
 COV   1.993882659619634E-18 -6.566389005896269E-18  2.444757536415439E-15
 COV   3.618191981826636E-13  1.052272593778028E-15 -1.635436783195530E-15
 COV   2.850754516759935E-17 -2.966010738154823E-16 -1.760023591266968E-13
 COV   1.504994649022932E-12  3.806545255088703E-15  6.139740409214191E-17
 COV   2.793980230334885E-17  3.393763194099171E-13 -1.823533604653631E-12
 COV   4.183705117331059E-17  1.598442021698627E-16 -6.681291645389368E-16
 COV  -3.478838847615641E-14  2.703306463366354E-15  2.857320406880408E-14
 COV   2.237925443909228E-13  3.892245961968149E-11  3.254044984644840E-10
 COV   1.061933498595291E-07
 NOR   9.862711245568586E+18  6.924193263813723E+17 -6.926005167644801E+17
 NOR   1.168043244425714E+17  9.387450910568556E+15  9.244736690361566E+15
 NOR  -8.362013532865312E+13  5.786608002453860E+16 -4.710499425611477E+16
 NOR  -5.955246850711110E+15  2.206903220375175E+15  6.779364316680780E+14
 NOR  -6.072140238215774E+12  5.124152089803036E+16 -1.631030297423643E+16
 NOR   1.354060833525214E+14 -6.663592497647322E+14  5.943575087510300E+12
 NOR   6.826410045465458E+16 -5.438265747893062E+15  1.208902518233735E+14
 NOR  -9.302673704697030E+11  8.755287202600114E+14  8.223406253284731E+12
 NOR  -8.976154022211928E+10  8.986130939673682E+12 -8.006249549755347E+10
 NOR   7.276598727061858E+08
!MOID  0.00248    0
!NODES -0.19846 -0.02490
